{"type": "FeatureCollection", "features": [ {"type": "Feature", "properties": {"norad_id": 32260, "name": "GPS BIIRM-4 (PRN 15)", "group": "gnss", "lat": 20.71095075882797, "lon": 103.7788024602392, "alt_km": 19951.678956153846, "timestamp": "2025-12-11T07:02:23.972302+00:00", "meta": {"OBJECT_NAME": "GPS BIIRM-4 (PRN 15)", "OBJECT_ID": "2007-047A", "EPOCH": "2025-12-10T06:15:19.310688", "MEAN_MOTION": 2.00564571, "ECCENTRICITY": 0.0164232, "INCLINATION": 53.9536, "RA_OF_ASC_NODE": 87.861, "ARG_OF_PERICENTER": 85.2178, "MEAN_ANOMALY": 276.6503, "EPHEMERIS_TYPE": 0, "CLASSIFICATION_TYPE": "U", "NORAD_CAT_ID": 32260, "ELEMENT_SET_NO": 999, "REV_AT_EPOCH": 13302, "BSTAR": 0, "MEAN_MOTION_DOT": -1.7e-07, "MEAN_MOTION_DDOT": 0}, "tle": {"line1": "1 32260U 07047A   25344.26064017 -.00000017  00000+0  00000+0 0  9992", "line2": "2 32260  53.9536  87.8610 0164232  85.2178 276.6503  2.00564571133023"}}, "geometry": {"type": "Point", "coordinates": [103.7788024602392, 20.71095075882797]}}, {"type": "Feature", "properties": {"norad_id": 32275, "name": "COSMOS 2433 (720)", "group": "gnss", "lat": 53.63201531515544, "lon": 0.11433695326782271, "alt_km": 19137.671498550833, "timestamp": "2025-12-11T07:02:23.972314+00:00", "meta": {"OBJECT_NAME": "COSMOS 2433 (720)", "OBJECT_ID": "2007-052A", "EPOCH": "2025-12-10T06:34:19.673184", "MEAN_MOTION": 2.13103813, "ECCENTRICITY": 0.00055546, "INCLINATION": 65.6847, "RA_OF_ASC_NODE": 322.2886, "ARG_OF_PERICENTER": 252.6006, "MEAN_ANOMALY": 107.3381, "EPHEMERIS_TYPE": 0, "CLASSIFICATION_TYPE": "U", "NORAD_CAT_ID": 32275, "ELEMENT_SET_NO": 999, "REV_AT_EPOCH": 14103, "BSTAR": 0, "MEAN_MOTION_DOT": -5e-07, "MEAN_MOTION_DDOT": 0}, "tle": {"line1": "1 32275U 07052A   25344.27383881 -.00000050  00000+0  00000+0 0  9995", "line2": "2 32275  65.6847 322.2886 0005554 252.6006 107.3381  2.13103813141032"}}, "geometry": {"type": "Point", "coordinates": [0.11433695326782271, 53.63201531515544]}}, {"type": "Feature", "properties": {"norad_id": 32276, "name": "COSMOS 2432 (719)", "group": "gnss", "lat": 6.046602934634046, "lon": -34.88856980242825, "alt_km": 19113.15208905173, "timestamp": "2025-12-11T07:02:23.972327+00:00", "meta": {"OBJECT_NAME": "COSMOS 2432 (719)", "OBJECT_ID": "2007-052B", "EPOCH": "2025-12-10T13:56:19.351392", "MEAN_MOTION": 2.13102999, "ECCENTRICITY": 0.0011254, "INCLINATION": 65.7001, "RA_OF_ASC_NODE": 322.4023, "ARG_OF_PERICENTER": 311.5771, "MEAN_ANOMALY": 228.309, "EPHEMERIS_TYPE": 0, "CLASSIFICATION_TYPE": "U", "NORAD_CAT_ID": 32276, "ELEMENT_SET_NO": 999, "REV_AT_EPOCH": 14106, "BSTAR": 0, "MEAN_MOTION_DOT": -5e-07, "MEAN_MOTION_DDOT": 0}, "tle": {"line1": "1 32276U 07052B   25344.58077953 -.00000050  00000+0  00000+0 0  9990", "line2": "2 32276  65.7001 322.4023 0011254 311.5771 228.3090  2.13102999141067"}}, "geometry": {"type": "Point", "coordinates": [-34.88856980242825, 6.046602934634046]}}, {"type": "Feature", "properties": {"norad_id": 32384, "name": "GPS BIIRM-5 (PRN 29)", "group": "gnss", "lat": 18.958795567518038, "lon": 87.87583553481056, "alt_km": 20093.546213192778, "timestamp": "2025-12-11T07:02:23.972339+00:00", "meta": {"OBJECT_NAME": "GPS BIIRM-5 (PRN 29)", "OBJECT_ID": "2007-062A", "EPOCH": "2025-12-10T07:58:35.592096", "MEAN_MOTION": 2.00577123, "ECCENTRICITY": 0.00322309, "INCLINATION": 55.1843, "RA_OF_ASC_NODE": 281.7425, "ARG_OF_PERICENTER": 162.5309, "MEAN_ANOMALY": 20.2379, "EPHEMERIS_TYPE": 0, "CLASSIFICATION_TYPE": "U", "NORAD_CAT_ID": 32384, "ELEMENT_SET_NO": 999, "REV_AT_EPOCH": 13172, "BSTAR": 0, "MEAN_MOTION_DOT": -6.2e-07, "MEAN_MOTION_DDOT": 0}, "tle": {"line1": "1 32384U 07062A   25344.33235639 -.00000062  00000+0  00000+0 0  9994", "line2": "2 32384  55.1843 281.7425 0032230 162.5309  20.2379  2.00577123131727"}}, "geometry": {"type": "Point", "coordinates": [87.87583553481056, 18.958795567518038]}}, {"type": "Feature", "properties": {"norad_id": 32393, "name": "COSMOS 2434 (721)", "group": "gnss", "lat": -41.55250446500162, "lon": 173.0058221157567, "alt_km": 19140.319421905977, "timestamp": "2025-12-11T07:02:23.972351+00:00", "meta": {"OBJECT_NAME": "COSMOS 2434 (721)", "OBJECT_ID": "2007-065A", "EPOCH": "2025-12-10T15:35:17.035872", "MEAN_MOTION": 2.13101152, "ECCENTRICITY": 0.0004304, "INCLINATION": 64.3147, "RA_OF_ASC_NODE": 198.2738, "ARG_OF_PERICENTER": 71.148, "MEAN_ANOMALY": 107.63, "EPHEMERIS_TYPE": 0, "CLASSIFICATION_TYPE": "U", "NORAD_CAT_ID": 32393, "ELEMENT_SET_NO": 999, "REV_AT_EPOCH": 13975, "BSTAR": 0, "MEAN_MOTION_DOT": 4.8e-07, "MEAN_MOTION_DDOT": 0}, "tle": {"line1": "1 32393U 07065A   25344.64950273  .00000048  00000+0  00000+0 0  9992", "line2": "2 32393  64.3147 198.2738 0004304  71.1480 107.6300  2.13101152139755"}}, "geometry": {"type": "Point", "coordinates": [173.0058221157567, -41.55250446500162]}}, {"type": "Feature", "properties": {"norad_id": 32395, "name": "COSMOS 2436 (723)", "group": "gnss", "lat": 64.0127305238637, "lon": -80.96887874470058, "alt_km": 19112.628763998797, "timestamp": "2025-12-11T07:02:23.972363+00:00", "meta": {"OBJECT_NAME": "COSMOS 2436 (723)", "OBJECT_ID": "2007-065C", "EPOCH": "2025-12-08T02:01:11.627904", "MEAN_MOTION": 2.13100022, "ECCENTRICITY": 0.00177472, "INCLINATION": 64.3236, "RA_OF_ASC_NODE": 198.4308, "ARG_OF_PERICENTER": 9.2257, "MEAN_ANOMALY": 134.6131, "EPHEMERIS_TYPE": 0, "CLASSIFICATION_TYPE": "U", "NORAD_CAT_ID": 32395, "ELEMENT_SET_NO": 999, "REV_AT_EPOCH": 13965, "BSTAR": 0, "MEAN_MOTION_DOT": 5.1e-07, "MEAN_MOTION_DDOT": 0}, "tle": {"line1": "1 32395U 07065C   25342.08416236  .00000051  00000+0  00000+0 0  9990", "line2": "2 32395  64.3236 198.4308 0017747   9.2257 134.6131  2.13100022139656"}}, "geometry": {"type": "Point", "coordinates": [-80.96887874470058, 64.0127305238637]}}, {"type": "Feature", "properties": {"norad_id": 32711, "name": "GPS BIIRM-6 (PRN 07)", "group": "gnss", "lat": 53.36572195321653, "lon": -128.64710579111534, "alt_km": 20692.82212271952, "timestamp": "2025-12-11T07:02:23.972374+00:00", "meta": {"OBJECT_NAME": "GPS BIIRM-6 (PRN 07)", "OBJECT_ID": "2008-012A", "EPOCH": "2025-12-10T16:18:30.026016", "MEAN_MOTION": 2.00565518, "ECCENTRICITY": 0.02023568, "INCLINATION": 54.4769, "RA_OF_ASC_NODE": 157.4551, "ARG_OF_PERICENTER": 244.9238, "MEAN_ANOMALY": 112.9713, "EPHEMERIS_TYPE": 0, "CLASSIFICATION_TYPE": "U", "NORAD_CAT_ID": 32711, "ELEMENT_SET_NO": 999, "REV_AT_EPOCH": 12997, "BSTAR": 0, "MEAN_MOTION_DOT": 7.9e-07, "MEAN_MOTION_DDOT": 0}, "tle": {"line1": "1 32711U 08012A   25344.67951419  .00000079  00000+0  00000+0 0  9999", "line2": "2 32711  54.4769 157.4551 0202356 244.9238 112.9713  2.00565518129973"}}, "geometry": {"type": "Point", "coordinates": [-128.64710579111534, 53.36572195321653]}}, {"type": "Feature", "properties": {"norad_id": 35752, "name": "GPS BIIRM-8 (PRN 05)", "group": "gnss", "lat": 54.47755030562422, "lon": 144.54142767560614, "alt_km": 20045.59801668402, "timestamp": "2025-12-11T07:02:23.972386+00:00", "meta": {"OBJECT_NAME": "GPS BIIRM-8 (PRN 05)", "OBJECT_ID": "2009-043A", "EPOCH": "2025-12-10T15:39:24.141600", "MEAN_MOTION": 2.0056577, "ECCENTRICITY": 0.0051863, "INCLINATION": 56.0896, "RA_OF_ASC_NODE": 34.8654, "ARG_OF_PERICENTER": 81.9471, "MEAN_ANOMALY": 276.3471, "EPHEMERIS_TYPE": 0, "CLASSIFICATION_TYPE": "U", "NORAD_CAT_ID": 35752, "ELEMENT_SET_NO": 999, "REV_AT_EPOCH": 11957, "BSTAR": 0, "MEAN_MOTION_DOT": -9.3e-07, "MEAN_MOTION_DDOT": 0}, "tle": {"line1": "1 35752U 09043A   25344.65236275 -.00000093  00000+0  00000+0 0  9993", "line2": "2 35752  56.0896  34.8654 0051863  81.9471 276.3471  2.00565770119576"}}, "geometry": {"type": "Point", "coordinates": [144.54142767560614, 54.47755030562422]}}, {"type": "Feature", "properties": {"norad_id": 36111, "name": "COSMOS 2456 (730)", "group": "gnss", "lat": 58.44937886506554, "lon": -152.27478365983157, "alt_km": 19130.488156993608, "timestamp": "2025-12-11T07:02:23.972397+00:00", "meta": {"OBJECT_NAME": "COSMOS 2456 (730)", "OBJECT_ID": "2009-070A", "EPOCH": "2025-12-09T05:47:54.858624", "MEAN_MOTION": 2.13103359, "ECCENTRICITY": 0.00028383, "INCLINATION": 64.8981, "RA_OF_ASC_NODE": 77.4578, "ARG_OF_PERICENTER": 298.5783, "MEAN_ANOMALY": 37.1692, "EPHEMERIS_TYPE": 0, "CLASSIFICATION_TYPE": "U", "NORAD_CAT_ID": 36111, "ELEMENT_SET_NO": 999, "REV_AT_EPOCH": 12437, "BSTAR": 0, "MEAN_MOTION_DOT": -1.7e-07, "MEAN_MOTION_DDOT": 0}, "tle": {"line1": "1 36111U 09070A   25343.24160716 -.00000017  00000+0  00000+0 0  9999", "line2": "2 36111  64.8981  77.4578 0002838 298.5783  37.1692  2.13103359124373"}}, "geometry": {"type": "Point", "coordinates": [-152.27478365983157, 58.44937886506554]}}, {"type": "Feature", "properties": {"norad_id": 36112, "name": "COSMOS 2457 (733)", "group": "gnss", "lat": -50.92379745209925, "lon": -67.53106634380941, "alt_km": 19134.302976041407, "timestamp": "2025-12-11T07:02:23.972409+00:00", "meta": {"OBJECT_NAME": "COSMOS 2457 (733)", "OBJECT_ID": "2009-070B", "EPOCH": "2025-12-09T23:48:31.817088", "MEAN_MOTION": 2.13100761, "ECCENTRICITY": 0.00048188, "INCLINATION": 64.8839, "RA_OF_ASC_NODE": 77.2797, "ARG_OF_PERICENTER": 156.0783, "MEAN_ANOMALY": 164.5444, "EPHEMERIS_TYPE": 0, "CLASSIFICATION_TYPE": "U", "NORAD_CAT_ID": 36112, "ELEMENT_SET_NO": 999, "REV_AT_EPOCH": 12439, "BSTAR": 0, "MEAN_MOTION_DOT": -2.2e-07, "MEAN_MOTION_DDOT": 0}, "tle": {"line1": "1 36112U 09070B   25343.99203492 -.00000022  00000+0  00000+0 0  9997", "line2": "2 36112  64.8839  77.2797 0004818 156.0783 164.5444  2.13100761124391"}}, "geometry": {"type": "Point", "coordinates": [-67.53106634380941, -50.92379745209925]}}]}